HORN-R                  
1 69507U 26132F   26190.44429351  .00000975  00000+0  72043-4 0  9991
2 69507  97.6839 253.9669 0019226 226.0665 133.8976 15.05461380  4114
STARLINK-37536          
1 69508U 26133A   26191.54676404  .00039776  00000+0  71844-3 0  9996
2 69508  53.1586 207.0787 0001011  97.1177 262.9947 15.49354530  4433
STARLINK-37341          
1 69509U 26133B   26191.54861568  .00038029  00000+0  68798-3 0  9998
2 69509  53.1578 207.0910 0001618  96.9697 263.1496 15.49329684  4445
STARLINK-36536          
1 69510U 26133C   26191.83335647 -.02823357  00000+0 -75881-1 0  9995
2 69510  53.1593 205.0331 0001104 126.1533   6.5203 15.41000205  5728
STARLINK-37420          
1 69511U 26133D   26191.83335647 -.01894103  00000+0 -49869-1 0  9999
2 69511  53.1589 204.7796 0000481  64.5125 192.4034 15.41354586  5679
STARLINK-37511          
1 69512U 26133E   26191.83335647 -.02954388  00000+0 -83297-1 0  9996
2 69512  53.1597 204.8221 0001145  84.0266 153.2693 15.39741528  5673
STARLINK-37552          
1 69513U 26133F   26191.67705921  .00036246  00000+0  65649-3 0  9998
2 69513  53.1579 206.4684 0001556  86.7933 273.3254 15.49319576  5729
STARLINK-37607          
1 69514U 26133G   26191.83335647 -.01242843  00000+0 -38326-1 0  9996
2 69514  53.1591 204.9064 0000837  82.9925 110.2762 15.36241990  5676
STARLINK-37232          
1 69515U 26133H   26191.58777499  .00032580  00000+0  59117-3 0  9999
2 69515  53.1576 206.6119 0001048  82.6687 277.4441 15.49319670  4446
STARLINK-37323          
1 69516U 26133J   26191.83335647 -.02659423  00000+0 -71503-1 0  9999
2 69516  53.1584 204.6535 0001133  43.7218 273.9076 15.41398436  5679
STARLINK-37357          
1 69517U 26133K   26191.67634317  .00053427  00000+0  96173-3 0  9998
2 69517  53.1614 206.4609 0001358  56.0119 304.1019 15.49320181  5711
STARLINK-37408          
1 69518U 26133L   26191.41746640  .00032904  00000+0  59653-3 0  9993
2 69518  53.1603 206.9580 0000198 279.7489  80.3497 15.49339447  5693
STARLINK-37570          
1 69519U 26133M   26191.52592775  .00030258  00000+0  54971-3 0  9992
2 69519  53.1597 206.9341 0000908  85.7524 274.3589 15.49323465  5707
STARLINK-37510          
1 69520U 26133N   26191.58578419  .00032506  00000+0  58987-3 0  9998
2 69520  53.1583 206.5972 0000770  70.6871 289.4221 15.49319176  5710
STARLINK-37586          
1 69521U 26133P   26191.83335647 -.02920946  00000+0 -86586-1 0  9993
2 69521  53.1610 204.5745 0001505  51.8429 302.8813 15.38177792  5671
STARLINK-37379          
1 69522U 26133Q   26191.42952763  .00050711  00000+0  91241-3 0  9999
2 69522  53.1608 207.0342 0001293  93.7386 266.3771 15.49356610  5690
STARLINK-37429          
1 69523U 26133R   26191.53145370  .00056376  00000+0  10132-2 0  9992
2 69523  53.1595 206.9677 0001182  74.4967 285.6173 15.49342375  5708
STARLINK-37352          
1 69524U 26133S   26191.55715691  .00036961  00000+0  66928-3 0  9997
2 69524  53.1594 206.4063 0001238 101.0510 259.0638 15.49317245  5715
STARLINK-37490          
1 69525U 26133T   26191.83335647 -.02787224  00000+0 -66674-1 0  9993
2 69525  53.1601 204.6325 0000941  76.9989 247.4003 15.45032025  5720
STARLINK-37438          
1 69526U 26133U   26191.57119081  .00016111  00000+0  29696-3 0  9998
2 69526  53.1596 206.4975 0000983  79.8663 280.2457 15.49326303  5718
STARLINK-37484          
1 69527U 26133V   26191.83335647 -.02910204  00000+0 -79451-1 0  9998
2 69527  53.1601 204.5805 0000888  72.7550 276.2794 15.40649906  5726
STARLINK-37523          
1 69528U 26133W   26191.68341431  .00052580  00000+0  94664-3 0  9995
2 69528  53.1585 205.7700 0001662  85.2711 274.8488 15.49322095  5735
STARLINK-37369          
1 69529U 26133X   26191.55086969  .00017707  00000+0  32536-3 0  9996
2 69529  53.1591 206.3623 0001192 112.8207 247.2928 15.49339735  5719
STARLINK-37670          
1 69530U 26133Y   26191.56584389  .00030163  00000+0  54761-3 0  9993
2 69530  53.1611 206.4589 0001314 137.6389 222.4722 15.49344264  5718
STARLINK-37897          
1 69531U 26133Z   26191.83335647 -.02637954  00000+0 -60084-1 0  9993
2 69531  53.1598 204.5206 0001495  56.2211 320.3997 15.46209441  5679
STARLINK-37933          
1 69532U 26133AA  26191.83335647  .00029074  00000+0  84158-3 0  9998
2 69532  53.1598 205.1325 0001357 107.0295 325.0663 15.35384485  5675
STARLINK-37890          
1 69533U 26133AB  26191.83335647  .00027906  00000+0  83452-3 0  9997
2 69533  53.1590 205.0484 0001320  96.1056  16.0869 15.34379435  5679
STARLINK-37407          
1 69534U 26133AC  26191.83335647  .00027879  00000+0  85620-3 0  9996
2 69534  53.1586 204.8920 0001268  95.9552  92.6368 15.33535484  5723
STARLINK-37888          
1 69535U 26133AD  26191.83335647  .00027276  00000+0  81602-3 0  9994
2 69535  53.1586 204.9500 0001442  65.9111  92.8134 15.34378064  5678
STARLINK-37889          
1 69536U 26133AE  26191.52765250  .00048126  00000+0  86692-3 0  9999
2 69536  53.1618 206.9499 0001006  99.7172 260.3951 15.49345637  5701
