OBJECT_NAME,OBJECT_ID,EPOCH,MEAN_MOTION,ECCENTRICITY,INCLINATION,RA_OF_ASC_NODE,ARG_OF_PERICENTER,MEAN_ANOMALY,EPHEMERIS_TYPE,CLASSIFICATION_TYPE,NORAD_CAT_ID,ELEMENT_SET_NO,REV_AT_EPOCH,BSTAR,MEAN_MOTION_DOT,MEAN_MOTION_DDOT
HORN-R,2026-132F,2026-07-09T10:39:46.959264,15.05461380,.00192264,97.6839,253.9669,226.0665,133.8976,0,U,69507,999,411,.72042597E-4,.975E-5,0
STARLINK-37536,2026-133A,2026-07-10T13:07:20.413056,15.49354530,.0001011,53.1586,207.0787,97.1177,262.9947,0,U,69508,999,443,.71844E-3,.39776E-3,0
STARLINK-37341,2026-133B,2026-07-10T13:10:00.394752,15.49329684,.0001618,53.1578,207.0910,96.9697,263.1496,0,U,69509,999,444,.68798E-3,.38029E-3,0
STARLINK-36536,2026-133C,2026-07-10T20:00:01.999008,15.41000205,.0001104,53.1593,205.0331,126.1533,6.5203,0,U,69510,999,572,-.75881E-1,-.2823357E-1,0
STARLINK-37420,2026-133D,2026-07-10T20:00:01.999008,15.41354586,.0000481,53.1589,204.7796,64.5125,192.4034,0,U,69511,999,567,-.49869E-1,-.1894103E-1,0
STARLINK-37511,2026-133E,2026-07-10T20:00:01.999008,15.39741528,.0001145,53.1597,204.8221,84.0266,153.2693,0,U,69512,999,567,-.83297E-1,-.2954388E-1,0
STARLINK-37552,2026-133F,2026-07-10T16:14:57.915744,15.49319576,.0001556,53.1579,206.4684,86.7933,273.3254,0,U,69513,999,572,.65649E-3,.36246E-3,0
STARLINK-37607,2026-133G,2026-07-10T20:00:01.999008,15.36241990,.0000837,53.1591,204.9064,82.9925,110.2762,0,U,69514,999,567,-.38326E-1,-.1242843E-1,0
STARLINK-37232,2026-133H,2026-07-10T14:06:23.759136,15.49319670,.0001048,53.1576,206.6119,82.6687,277.4441,0,U,69515,999,444,.59117E-3,.3258E-3,0
STARLINK-37323,2026-133J,2026-07-10T20:00:01.999008,15.41398436,.0001133,53.1584,204.6535,43.7218,273.9076,0,U,69516,999,567,-.71503E-1,-.2659423E-1,0
STARLINK-37357,2026-133K,2026-07-10T16:13:56.049888,15.49320181,.0001358,53.1614,206.4609,56.0119,304.1019,0,U,69517,999,571,.96173E-3,.53427E-3,0
STARLINK-37408,2026-133L,2026-07-10T10:01:09.096960,15.49339447,.00001988,53.1603,206.9580,279.7489,80.3497,0,U,69518,999,569,.59652901E-3,.32904E-3,0
STARLINK-37570,2026-133M,2026-07-10T12:37:20.157600,15.49323465,.0000908,53.1597,206.9341,85.7524,274.3589,0,U,69519,999,570,.54971E-3,.30258E-3,0
STARLINK-37510,2026-133N,2026-07-10T14:03:31.754016,15.49319176,.000077,53.1583,206.5972,70.6871,289.4221,0,U,69520,999,571,.58987E-3,.32506E-3,0
STARLINK-37586,2026-133P,2026-07-10T20:00:01.999008,15.38177792,.0001505,53.1610,204.5745,51.8429,302.8813,0,U,69521,999,567,-.86586E-1,-.2920946E-1,0
STARLINK-37379,2026-133Q,2026-07-10T10:18:31.187232,15.49356610,.00012935,53.1608,207.0342,93.7386,266.3771,0,U,69522,999,569,.91240602E-3,.50711E-3,0
STARLINK-37429,2026-133R,2026-07-10T12:45:17.599680,15.49342375,.0001182,53.1595,206.9677,74.4967,285.6173,0,U,69523,999,570,.10132E-2,.56376E-3,0
STARLINK-37352,2026-133S,2026-07-10T13:22:18.357024,15.49317245,.0001238,53.1594,206.4063,101.0510,259.0638,0,U,69524,999,571,.66928E-3,.36961E-3,0
STARLINK-37490,2026-133T,2026-07-10T20:00:01.999008,15.45032025,.0000941,53.1601,204.6325,76.9989,247.4003,0,U,69525,999,572,-.66674E-1,-.2787224E-1,0
STARLINK-37438,2026-133U,2026-07-10T13:42:30.885984,15.49326303,.0000983,53.1596,206.4975,79.8663,280.2457,0,U,69526,999,571,.29696E-3,.16111E-3,0
STARLINK-37484,2026-133V,2026-07-10T20:00:01.999008,15.40649906,.0000888,53.1601,204.5805,72.7550,276.2794,0,U,69527,999,572,-.79451E-1,-.2910204E-1,0
STARLINK-37523,2026-133W,2026-07-10T16:24:06.996384,15.49322095,.0001662,53.1585,205.7700,85.2711,274.8488,0,U,69528,999,573,.94664E-3,.5258E-3,0
STARLINK-37369,2026-133X,2026-07-10T13:13:15.141216,15.49339735,.0001192,53.1591,206.3623,112.8207,247.2928,0,U,69529,999,571,.32536E-3,.17707E-3,0
STARLINK-37670,2026-133Y,2026-07-10T13:34:48.912096,15.49344264,.0001314,53.1611,206.4589,137.6389,222.4722,0,U,69530,999,571,.54761E-3,.30163E-3,0
STARLINK-37897,2026-133Z,2026-07-10T20:00:01.999008,15.46209441,.0001495,53.1598,204.5206,56.2211,320.3997,0,U,69531,999,567,-.60084E-1,-.2637954E-1,0
STARLINK-37933,2026-133AA,2026-07-10T20:00:01.999008,15.35384485,.0001357,53.1598,205.1325,107.0295,325.0663,0,U,69532,999,567,.84158E-3,.29074E-3,0
STARLINK-37890,2026-133AB,2026-07-10T20:00:01.999008,15.34379435,.000132,53.1590,205.0484,96.1056,16.0869,0,U,69533,999,567,.83452E-3,.27906E-3,0
STARLINK-37407,2026-133AC,2026-07-10T20:00:01.999008,15.33535484,.0001268,53.1586,204.8920,95.9552,92.6368,0,U,69534,999,572,.8562E-3,.27879E-3,0
STARLINK-37888,2026-133AD,2026-07-10T20:00:01.999008,15.34378064,.0001442,53.1586,204.9500,65.9111,92.8134,0,U,69535,999,567,.81602E-3,.27276E-3,0
STARLINK-37889,2026-133AE,2026-07-10T12:39:49.176000,15.49345637,.0001006,53.1618,206.9499,99.7172,260.3951,0,U,69536,999,570,.86692E-3,.48126E-3,0
